STARLINK-3740           
1 52265U 22041E   22230.91667824  .00002740  00000+0  19007-3 0  9993
2 52265  53.2159 179.5297 0002458  63.5616 194.4461 15.08868177  1307
STARLINK-3739           
1 52266U 22041F   22230.91667824  .00007741  00000+0  50367-3 0  9994
2 52266  53.2157 179.5298 0002297  60.1967 217.8300 15.08860405  1308
STARLINK-3748           
1 52267U 22041G   22230.91667824  .00005271  00000+0  34899-3 0  9993
2 52267  53.2151 179.5292 0002409  57.7815 240.2559 15.08847394  1304
STARLINK-3746           
1 52268U 22041H   22230.91667824  .00003553  00000+0  24117-3 0  9997
2 52268  53.2164 179.5299 0002058  56.9828 301.0369 15.08845546  1303
STARLINK-3791           
1 52269U 22041J   22230.91667824 -.00020143  00000+0 -12500-2 0  9996
2 52269  53.2164 179.5298 0001900  61.3669 256.6452 15.08870036  1301
STARLINK-3804           
1 52270U 22041K   22230.91667824 -.00022607  00000+0 -14058-2 0  9995
2 52270  53.2175 179.5256 0002441  60.2454 312.5928 15.08863545  1307
STARLINK-3788           
1 52271U 22041L   22230.91667824 -.00042486  00000+0 -26648-2 0  9991
2 52271  53.2160 179.5297 0002010  58.1775 279.8462 15.08871125  1302
STARLINK-3781           
1 52272U 22041M   22230.91667824 -.00042918  00000+0 -26919-2 0  9993
2 52272  53.2166 179.5259 0001979  59.0638 333.7656 15.08876433  1300
STARLINK-3782           
1 52273U 22041N   22231.25001157  .00061604  00000+0  38595-2 0  9997
2 52273  53.2174 168.0368 0001838  57.4931 321.8832 15.08798863 19703
STARLINK-3790           
1 52274U 22041P   22230.91667824  .00002696  00000+0  18736-3 0  9991
2 52274  53.2163 179.5244 0002107  66.0774 351.9327 15.08851508  1309
STARLINK-3784           
1 52275U 22041Q   22230.91667824 -.00025725  00000+0 -16026-2 0  9991
2 52275  53.2175 179.5254 0002016  57.5948 320.4091 15.08870974  1308
STARLINK-3778           
1 52276U 22041R   22230.91667824 -.00045108  00000+0 -28314-2 0  9992
2 52276  53.2174 179.5358 0002177  59.7993  18.2436 15.08871139  1304
STARLINK-3787           
1 52277U 22041S   22230.91667824  .00034770  00000+0  21927-2 0  9997
2 52277  53.2169 179.5283 0001973  59.3979 338.5595 15.08827499  1303
STARLINK-3780           
1 52278U 22041T   22230.91667824 -.00046927  00000+0 -29462-2 0  9999
2 52278  53.2168 179.5296 0002231  64.0338  33.9780 15.08882023  1303
STARLINK-3686           
1 52279U 22041U   22230.91667824  .00005665  00000+0  37379-3 0  9999
2 52279  53.2174 179.5295 0001754  58.4044 354.3664 15.08832570  1303
STARLINK-3764           
1 52280U 22041V   22230.91667824 -.00033944  00000+0 -21234-2 0  9996
2 52280  53.2195 179.5428 0002391  51.5989 106.4511 15.08860909  1300
STARLINK-3779           
1 52281U 22041W   22230.91667824  .00001845  00000+0  13398-3 0  9993
2 52281  53.2172 179.5260 0002325  61.1503  11.6561 15.08854323  1301
