[{"OBJECT_NAME":"STARLINK-3740","OBJECT_ID":"2022-041E","EPOCH":"2022-08-18T22:00:00.999936","MEAN_MOTION":15.08868177,"ECCENTRICITY":0.0002458,"INCLINATION":53.2159,"RA_OF_ASC_NODE":179.5297,"ARG_OF_PERICENTER":63.5616,"MEAN_ANOMALY":194.4461,"EPHEMERIS_TYPE":0,"CLASSIFICATION_TYPE":"U","NORAD_CAT_ID":52265,"ELEMENT_SET_NO":999,"REV_AT_EPOCH":130,"BSTAR":0.00019007,"MEAN_MOTION_DOT":2.74e-5,"MEAN_MOTION_DDOT":0},{"OBJECT_NAME":"STARLINK-3739","OBJECT_ID":"2022-041F","EPOCH":"2022-08-18T22:00:00.999936","MEAN_MOTION":15.08860405,"ECCENTRICITY":0.0002297,"INCLINATION":53.2157,"RA_OF_ASC_NODE":179.5298,"ARG_OF_PERICENTER":60.1967,"MEAN_ANOMALY":217.83,"EPHEMERIS_TYPE":0,"CLASSIFICATION_TYPE":"U","NORAD_CAT_ID":52266,"ELEMENT_SET_NO":999,"REV_AT_EPOCH":130,"BSTAR":0.00050367,"MEAN_MOTION_DOT":7.741e-5,"MEAN_MOTION_DDOT":0},{"OBJECT_NAME":"STARLINK-3748","OBJECT_ID":"2022-041G","EPOCH":"2022-08-18T22:00:00.999936","MEAN_MOTION":15.08847394,"ECCENTRICITY":0.0002409,"INCLINATION":53.2151,"RA_OF_ASC_NODE":179.5292,"ARG_OF_PERICENTER":57.7815,"MEAN_ANOMALY":240.2559,"EPHEMERIS_TYPE":0,"CLASSIFICATION_TYPE":"U","NORAD_CAT_ID":52267,"ELEMENT_SET_NO":999,"REV_AT_EPOCH":130,"BSTAR":0.00034899,"MEAN_MOTION_DOT":5.271e-5,"MEAN_MOTION_DDOT":0},{"OBJECT_NAME":"STARLINK-3746","OBJECT_ID":"2022-041H","EPOCH":"2022-08-18T22:00:00.999936","MEAN_MOTION":15.08845546,"ECCENTRICITY":0.0002058,"INCLINATION":53.2164,"RA_OF_ASC_NODE":179.5299,"ARG_OF_PERICENTER":56.9828,"MEAN_ANOMALY":301.0369,"EPHEMERIS_TYPE":0,"CLASSIFICATION_TYPE":"U","NORAD_CAT_ID":52268,"ELEMENT_SET_NO":999,"REV_AT_EPOCH":130,"BSTAR":0.00024117,"MEAN_MOTION_DOT":3.553e-5,"MEAN_MOTION_DDOT":0},{"OBJECT_NAME":"STARLINK-3791","OBJECT_ID":"2022-041J","EPOCH":"2022-08-18T22:00:00.999936","MEAN_MOTION":15.08870036,"ECCENTRICITY":0.00019,"INCLINATION":53.2164,"RA_OF_ASC_NODE":179.5298,"ARG_OF_PERICENTER":61.3669,"MEAN_ANOMALY":256.6452,"EPHEMERIS_TYPE":0,"CLASSIFICATION_TYPE":"U","NORAD_CAT_ID":52269,"ELEMENT_SET_NO":999,"REV_AT_EPOCH":130,"BSTAR":-0.00125,"MEAN_MOTION_DOT":-0.00020143,"MEAN_MOTION_DDOT":0},{"OBJECT_NAME":"STARLINK-3804","OBJECT_ID":"2022-041K","EPOCH":"2022-08-18T22:00:00.999936","MEAN_MOTION":15.08863545,"ECCENTRICITY":0.0002441,"INCLINATION":53.2175,"RA_OF_ASC_NODE":179.5256,"ARG_OF_PERICENTER":60.2454,"MEAN_ANOMALY":312.5928,"EPHEMERIS_TYPE":0,"CLASSIFICATION_TYPE":"U","NORAD_CAT_ID":52270,"ELEMENT_SET_NO":999,"REV_AT_EPOCH":130,"BSTAR":-0.0014058,"MEAN_MOTION_DOT":-0.00022607,"MEAN_MOTION_DDOT":0},{"OBJECT_NAME":"STARLINK-3788","OBJECT_ID":"2022-041L","EPOCH":"2022-08-18T22:00:00.999936","MEAN_MOTION":15.08871125,"ECCENTRICITY":0.000201,"INCLINATION":53.216,"RA_OF_ASC_NODE":179.5297,"ARG_OF_PERICENTER":58.1775,"MEAN_ANOMALY":279.8462,"EPHEMERIS_TYPE":0,"CLASSIFICATION_TYPE":"U","NORAD_CAT_ID":52271,"ELEMENT_SET_NO":999,"REV_AT_EPOCH":130,"BSTAR":-0.0026648,"MEAN_MOTION_DOT":-0.00042486,"MEAN_MOTION_DDOT":0},{"OBJECT_NAME":"STARLINK-3781","OBJECT_ID":"2022-041M","EPOCH":"2022-08-18T22:00:00.999936","MEAN_MOTION":15.08876433,"ECCENTRICITY":0.0001979,"INCLINATION":53.2166,"RA_OF_ASC_NODE":179.5259,"ARG_OF_PERICENTER":59.0638,"MEAN_ANOMALY":333.7656,"EPHEMERIS_TYPE":0,"CLASSIFICATION_TYPE":"U","NORAD_CAT_ID":52272,"ELEMENT_SET_NO":999,"REV_AT_EPOCH":130,"BSTAR":-0.0026919,"MEAN_MOTION_DOT":-0.00042918,"MEAN_MOTION_DDOT":0},{"OBJECT_NAME":"STARLINK-3782","OBJECT_ID":"2022-041N","EPOCH":"2022-08-19T06:00:00.999648","MEAN_MOTION":15.08798863,"ECCENTRICITY":0.0001838,"INCLINATION":53.2174,"RA_OF_ASC_NODE":168.0368,"ARG_OF_PERICENTER":57.4931,"MEAN_ANOMALY":321.8832,"EPHEMERIS_TYPE":0,"CLASSIFICATION_TYPE":"U","NORAD_CAT_ID":52273,"ELEMENT_SET_NO":999,"REV_AT_EPOCH":1970,"BSTAR":0.0038595,"MEAN_MOTION_DOT":0.00061604,"MEAN_MOTION_DDOT":0},{"OBJECT_NAME":"STARLINK-3790","OBJECT_ID":"2022-041P","EPOCH":"2022-08-18T22:00:00.999936","MEAN_MOTION":15.08851508,"ECCENTRICITY":0.0002107,"INCLINATION":53.2163,"RA_OF_ASC_NODE":179.5244,"ARG_OF_PERICENTER":66.0774,"MEAN_ANOMALY":351.9327,"EPHEMERIS_TYPE":0,"CLASSIFICATION_TYPE":"U","NORAD_CAT_ID":52274,"ELEMENT_SET_NO":999,"REV_AT_EPOCH":130,"BSTAR":0.00018736,"MEAN_MOTION_DOT":2.696e-5,"MEAN_MOTION_DDOT":0},{"OBJECT_NAME":"STARLINK-3784","OBJECT_ID":"2022-041Q","EPOCH":"2022-08-18T22:00:00.999936","MEAN_MOTION":15.08870974,"ECCENTRICITY":0.0002016,"INCLINATION":53.2175,"RA_OF_ASC_NODE":179.5254,"ARG_OF_PERICENTER":57.5948,"MEAN_ANOMALY":320.4091,"EPHEMERIS_TYPE":0,"CLASSIFICATION_TYPE":"U","NORAD_CAT_ID":52275,"ELEMENT_SET_NO":999,"REV_AT_EPOCH":130,"BSTAR":-0.0016026,"MEAN_MOTION_DOT":-0.00025725,"MEAN_MOTION_DDOT":0},{"OBJECT_NAME":"STARLINK-3778","OBJECT_ID":"2022-041R","EPOCH":"2022-08-18T22:00:00.999936","MEAN_MOTION":15.08871139,"ECCENTRICITY":0.0002177,"INCLINATION":53.2174,"RA_OF_ASC_NODE":179.5358,"ARG_OF_PERICENTER":59.7993,"MEAN_ANOMALY":18.2436,"EPHEMERIS_TYPE":0,"CLASSIFICATION_TYPE":"U","NORAD_CAT_ID":52276,"ELEMENT_SET_NO":999,"REV_AT_EPOCH":130,"BSTAR":-0.0028314,"MEAN_MOTION_DOT":-0.00045108,"MEAN_MOTION_DDOT":0},{"OBJECT_NAME":"STARLINK-3787","OBJECT_ID":"2022-041S","EPOCH":"2022-08-18T22:00:00.999936","MEAN_MOTION":15.08827499,"ECCENTRICITY":0.0001973,"INCLINATION":53.2169,"RA_OF_ASC_NODE":179.5283,"ARG_OF_PERICENTER":59.3979,"MEAN_ANOMALY":338.5595,"EPHEMERIS_TYPE":0,"CLASSIFICATION_TYPE":"U","NORAD_CAT_ID":52277,"ELEMENT_SET_NO":999,"REV_AT_EPOCH":130,"BSTAR":0.0021927,"MEAN_MOTION_DOT":0.0003477,"MEAN_MOTION_DDOT":0},{"OBJECT_NAME":"STARLINK-3780","OBJECT_ID":"2022-041T","EPOCH":"2022-08-18T22:00:00.999936","MEAN_MOTION":15.08882023,"ECCENTRICITY":0.0002231,"INCLINATION":53.2168,"RA_OF_ASC_NODE":179.5296,"ARG_OF_PERICENTER":64.0338,"MEAN_ANOMALY":33.978,"EPHEMERIS_TYPE":0,"CLASSIFICATION_TYPE":"U","NORAD_CAT_ID":52278,"ELEMENT_SET_NO":999,"REV_AT_EPOCH":130,"BSTAR":-0.0029462,"MEAN_MOTION_DOT":-0.00046927,"MEAN_MOTION_DDOT":0},{"OBJECT_NAME":"STARLINK-3686","OBJECT_ID":"2022-041U","EPOCH":"2022-08-18T22:00:00.999936","MEAN_MOTION":15.0883257,"ECCENTRICITY":0.0001754,"INCLINATION":53.2174,"RA_OF_ASC_NODE":179.5295,"ARG_OF_PERICENTER":58.4044,"MEAN_ANOMALY":354.3664,"EPHEMERIS_TYPE":0,"CLASSIFICATION_TYPE":"U","NORAD_CAT_ID":52279,"ELEMENT_SET_NO":999,"REV_AT_EPOCH":130,"BSTAR":0.00037379,"MEAN_MOTION_DOT":5.665e-5,"MEAN_MOTION_DDOT":0},{"OBJECT_NAME":"STARLINK-3764","OBJECT_ID":"2022-041V","EPOCH":"2022-08-18T22:00:00.999936","MEAN_MOTION":15.08860909,"ECCENTRICITY":0.0002391,"INCLINATION":53.2195,"RA_OF_ASC_NODE":179.5428,"ARG_OF_PERICENTER":51.5989,"MEAN_ANOMALY":106.4511,"EPHEMERIS_TYPE":0,"CLASSIFICATION_TYPE":"U","NORAD_CAT_ID":52280,"ELEMENT_SET_NO":999,"REV_AT_EPOCH":130,"BSTAR":-0.0021234,"MEAN_MOTION_DOT":-0.00033944,"MEAN_MOTION_DDOT":0},{"OBJECT_NAME":"STARLINK-3779","OBJECT_ID":"2022-041W","EPOCH":"2022-08-18T22:00:00.999936","MEAN_MOTION":15.08854323,"ECCENTRICITY":0.0002325,"INCLINATION":53.2172,"RA_OF_ASC_NODE":179.526,"ARG_OF_PERICENTER":61.1503,"MEAN_ANOMALY":11.6561,"EPHEMERIS_TYPE":0,"CLASSIFICATION_TYPE":"U","NORAD_CAT_ID":52281,"ELEMENT_SET_NO":999,"REV_AT_EPOCH":130,"BSTAR":0.00013398,"MEAN_MOTION_DOT":1.845e-5,"MEAN_MOTION_DDOT":0}]